QIANFAN-17              
1 60395U 24140S   25251.85690296  .00000104  00000+0  14265-3 0  9999
2 60395  88.9815 309.2515 0017124 117.7414 242.5477 13.50968718 55323
QIANFAN-18              
1 60396U 24140T   25251.91045880  .00000074  00000+0  95244-4 0  9993
2 60396  88.9806 308.7869 0016558 102.4469 257.8536 13.50970482 54720
QIANFAN-19              
1 61552U 24185A   25251.91447874  .00000458  00000+0  23304-3 0  9999
2 61552  88.9758  88.8189 0005000 242.7134 117.3544 14.14147651 56264
QIANFAN-20              
1 61553U 24185B   25251.93552075  .00000359  00000+0  20052-3 0  9999
2 61553  88.9756  89.0448 0003795 298.3019  61.7782 14.08698368 56144
QIANFAN-21              
1 61554U 24185C   25251.92780487  .00000575  00000+0  25193-3 0  9990
2 61554  88.9673  88.0961 0009289 321.7265  38.3266 14.22407967 56494
QIANFAN-22              
1 61555U 24185D   25251.94515060  .00000193  00000+0  15605-3 0  9999
2 61555  88.9742  89.6437 0004783 292.7752  67.2913 13.86251630 55806
QIANFAN-23              
1 61556U 24185E   25251.95256565  .00000548  00000+0  27005-3 0  9994
2 61556  88.9751  88.6682 0005729 260.3896  99.6645 14.16125609 56339
QIANFAN-24              
1 61557U 24185F   25251.94036564  .00000683  00000+0  29343-3 0  9996
2 61557  88.9732  88.2297 0007571 242.9572 117.0848 14.23611032 56531
